{
"type": "FeatureCollection",
"name": "bird_maharashtra",
"crs": { "type": "name", "properties": { "name": "urn:ogc:def:crs:OGC:1.3:CRS84" } },
"xy_coordinate_resolution": 1e-15,
"features": [
{ "type": "Feature", "properties": { "catalogNumber": 15923592, "createdBy": "Dhanashree", "placeName": "Gangapur Dam, Nashik, Maharashtra 422222", "flagNotes": null, "noOfIdentifications": 1, "geoPrivacy": false, "createdOn (UTC)": "30/09/2020", "createdOn (Portal time)": "30/09/2020", "associatedMedia": "/5bed54f9-8963-44b7-b619-858583e8bfca/33681.JPG", "group_id": "Birds", "dateAccuracy": "ACCURATE", "isLocked": true, "locationLat": 20.0481104, "locationLon": 73.6798096, "locationScale": "ACCURATE", "fromDate": "24/05/2019", "toDate": "24/05/2019", "rank": "species", "scientificName": "Psilopogon haemacephalus (Statius Muller 1776)", "commonName": "Coppersmith Barbet:English", "kingdom": "Animalia", "phylum": "Chordata", "class": "Aves", "order": "Piciformes", "superfamily": null, "family": "Megalaimidae", "genus": "Psilopogon", "species": null, "basisOfRecord": "HUMAN_OBSERVATION", "village name in english": null, "village name in kannada": null, "village id": null, "plot id": null, "plant habit in english": null, "plant habit in kannada": null, "plant habitat in english": null, "plant habitat in kannada": null, "Folklore: A story about this tree": null, "Uses: This tree is used for": null, "Institution Name": null, "Isha Vidhya School": null, "Height (m)": null, "Canopy Diameter (m)": null, "Any other comments": null, "Trunk Circumference (cm)": null, "Did you observe ants on the plant?": null, "Did you observe hemipterans on the plant?": null, "Which part of the plant is infested with insects?": null, "What proportion of the plant is infested?": null, "Did you find any other insects besides ants and hemipterans?": null, "Which of the following hemipteran species have you observed?": null, "Which ant species did you observe?": null, "Texture": null, "Has stem?": null, "Bottom surface": null, "Growing on": null, "Ecological Role": null, "Edibility status": null, "GBH": null, "Trunk Area": null, "DBH": null, "Plot No.": null, "Canopy Cover": null, "Understory": null, "Number of birds observed.": null, "What behaviours did you observe?": null, "Weather conditions.": null, "How do you feel about the presence of crows in your area?": null, "speciesPageId": null, "previousVernacularNames": "585180#Coppersmith Barbet:English | ", "higherClassificationId": "name:Root#rank:root#taxonID:1 | name:Animalia#rank:kingdom#taxonID:872 | name:Chordata#rank:phylum#taxonID:20218 | name:Aves#rank:class#taxonID:22426 | name:Piciformes#rank:order#taxonID:22607 | name:Megalaimidae#rank:family#taxonID:3465141 | name:Psilopogon#rank:genus#taxonID:441862 | name:Psilopogon haemacephalus (Statius Muller 1776)#rank:species#taxonID:3051855", "reverseGeocodedName": "Gangapur Dam, Nashik, Maharashtra 422222", "tahsil": "Nashik", "state": "MAHARASHTRA", "district": "Nashik", "Sex": null, "Life Stage (Complete Metamorphosis)": null, "Life Stage (Incomplete Metamorphosis)": null, "Phenology State": null, "Habitat Type": "Lakeside | Urban | Plantation", "Abundance": null, "Life Stage": null, "Activity": null, "Microhabitat": null, "Wild/Domestic": "Wild", "toDate_1": "2019-05-24T18:30:00Z", "observedInMonth": "May", "lastRevised": "2020-10-01T09:01:28.534Z", "noOfImages": 2, "containsMedia": true, "uploadProtocol": "SINGLE_OBSERVATION", "datasetName": null, "organismRemarks": null, "tags": null, "speciesGroup": "Birds", "datatableName": null, "datatableAnnotations": null, "basisOfData": null }, "geometry": { "type": "Point", "coordinates": [ 73.6798096, 20.0481104 ] } },
{ "type": "Feature", "properties": { "catalogNumber": 15923505, "createdBy": "Dhanashree", "placeName": "Gangapur Dam, Nashik, Maharashtra 422222", "flagNotes": null, "noOfIdentifications": 2, "geoPrivacy": false, "createdOn (UTC)": "30/09/2020", "createdOn (Portal time)": "30/09/2020", "associatedMedia": "/a93702c9-62a2-48ee-81ff-823a2f5365d1/33670.JPG", "group_id": "Birds", "dateAccuracy": "ACCURATE", "isLocked": true, "locationLat": 20.0481104, "locationLon": 73.6798096, "locationScale": "ACCURATE", "fromDate": "18/06/2018", "toDate": "18/06/2018", "rank": "species", "scientificName": "Pseudibis papillosa (Temminck 1824)", "commonName": "Black Ibis:English", "kingdom": "Animalia", "phylum": "Chordata", "class": "Aves", "order": "Pelecaniformes", "superfamily": null, "family": "Threskiornithidae", "genus": "Pseudibis", "species": null, "basisOfRecord": "HUMAN_OBSERVATION", "village name in english": null, "village name in kannada": null, "village id": null, "plot id": null, "plant habit in english": null, "plant habit in kannada": null, "plant habitat in english": null, "plant habitat in kannada": null, "Folklore: A story about this tree": null, "Uses: This tree is used for": null, "Institution Name": null, "Isha Vidhya School": null, "Height (m)": null, "Canopy Diameter (m)": null, "Any other comments": null, "Trunk Circumference (cm)": null, "Did you observe ants on the plant?": null, "Did you observe hemipterans on the plant?": null, "Which part of the plant is infested with insects?": null, "What proportion of the plant is infested?": null, "Did you find any other insects besides ants and hemipterans?": null, "Which of the following hemipteran species have you observed?": null, "Which ant species did you observe?": null, "Texture": null, "Has stem?": null, "Bottom surface": null, "Growing on": null, "Ecological Role": null, "Edibility status": null, "GBH": null, "Trunk Area": null, "DBH": null, "Plot No.": null, "Canopy Cover": null, "Understory": null, "Number of birds observed.": null, "What behaviours did you observe?": null, "Weather conditions.": null, "How do you feel about the presence of crows in your area?": null, "speciesPageId": null, "previousVernacularNames": "276748#Black Ibis:English | ", "higherClassificationId": "name:Root#rank:root#taxonID:1 | name:Animalia#rank:kingdom#taxonID:872 | name:Chordata#rank:phylum#taxonID:20218 | name:Aves#rank:class#taxonID:22426 | name:Pelecaniformes#rank:order#taxonID:211762 | name:Threskiornithidae#rank:family#taxonID:91066 | name:Pseudibis#rank:genus#taxonID:91084 | name:Pseudibis papillosa (Temminck 1824)#rank:species#taxonID:91086", "reverseGeocodedName": "Gangapur Dam, Nashik, Maharashtra 422222", "tahsil": "Nashik", "state": "MAHARASHTRA", "district": "Nashik", "Sex": null, "Life Stage (Complete Metamorphosis)": null, "Life Stage (Incomplete Metamorphosis)": null, "Phenology State": null, "Habitat Type": "Lakeside | Urban | Plantation", "Abundance": null, "Life Stage": null, "Activity": null, "Microhabitat": null, "Wild/Domestic": "Wild", "toDate_1": "2018-06-18T18:30:00Z", "observedInMonth": "June", "lastRevised": "2020-10-01T08:56:47.260Z", "noOfImages": 2, "containsMedia": true, "uploadProtocol": "SINGLE_OBSERVATION", "datasetName": null, "organismRemarks": null, "tags": null, "speciesGroup": "Birds", "datatableName": null, "datatableAnnotations": null, "basisOfData": null }, "geometry": { "type": "Point", "coordinates": [ 73.6798096, 20.0481104 ] } },
{ "type": "Feature", "properties": { "catalogNumber": 15923473, "createdBy": "Dhanashree", "placeName": "Gangapur Dam, Nashik, Maharashtra 422222", "flagNotes": null, "noOfIdentifications": 1, "geoPrivacy": false, "createdOn (UTC)": "30/09/2020", "createdOn (Portal time)": "30/09/2020", "associatedMedia": "/cd716a1d-b1fa-45d1-a44f-bf6d827b458e/33667.JPG", "group_id": "Birds", "dateAccuracy": "ACCURATE", "isLocked": true, "locationLat": 20.0481104, "locationLon": 73.6798096, "locationScale": "ACCURATE", "fromDate": "17/06/2018", "toDate": "17/06/2018", "rank": "species", "scientificName": "Halcyon smyrnensis (Linnaeus 1758)", "commonName": "White-throated Kingfisher:English", "kingdom": "Animalia", "phylum": "Chordata", "class": "Aves", "order": "Coraciiformes", "superfamily": null, "family": "Alcedinidae", "genus": "Halcyon", "species": null, "basisOfRecord": "HUMAN_OBSERVATION", "village name in english": null, "village name in kannada": null, "village id": null, "plot id": null, "plant habit in english": null, "plant habit in kannada": null, "plant habitat in english": null, "plant habitat in kannada": null, "Folklore: A story about this tree": null, "Uses: This tree is used for": null, "Institution Name": null, "Isha Vidhya School": null, "Height (m)": null, "Canopy Diameter (m)": null, "Any other comments": null, "Trunk Circumference (cm)": null, "Did you observe ants on the plant?": null, "Did you observe hemipterans on the plant?": null, "Which part of the plant is infested with insects?": null, "What proportion of the plant is infested?": null, "Did you find any other insects besides ants and hemipterans?": null, "Which of the following hemipteran species have you observed?": null, "Which ant species did you observe?": null, "Texture": null, "Has stem?": null, "Bottom surface": null, "Growing on": null, "Ecological Role": null, "Edibility status": null, "GBH": null, "Trunk Area": null, "DBH": null, "Plot No.": null, "Canopy Cover": null, "Understory": null, "Number of birds observed.": null, "What behaviours did you observe?": null, "Weather conditions.": null, "How do you feel about the presence of crows in your area?": null, "speciesPageId": null, "previousVernacularNames": "316651#White-throated Kingfisher:English | ", "higherClassificationId": "name:Root#rank:root#taxonID:1 | name:Animalia#rank:kingdom#taxonID:872 | name:Chordata#rank:phylum#taxonID:20218 | name:Aves#rank:class#taxonID:22426 | name:Coraciiformes#rank:order#taxonID:90245 | name:Alcedinidae#rank:family#taxonID:90313 | name:Halcyon#rank:genus#taxonID:165292 | name:Halcyon smyrnensis (Linnaeus 1758)#rank:species#taxonID:165300", "reverseGeocodedName": "Gangapur Dam, Nashik, Maharashtra 422222", "tahsil": "Nashik", "state": "MAHARASHTRA", "district": "Nashik", "Sex": null, "Life Stage (Complete Metamorphosis)": null, "Life Stage (Incomplete Metamorphosis)": null, "Phenology State": null, "Habitat Type": "Lakeside | Urban | Plantation", "Abundance": null, "Life Stage": null, "Activity": null, "Microhabitat": null, "Wild/Domestic": "Wild", "toDate_1": "2018-06-17T18:30:00Z", "observedInMonth": "June", "lastRevised": "2020-10-07T03:44:05.072Z", "noOfImages": 1, "containsMedia": true, "uploadProtocol": "SINGLE_OBSERVATION", "datasetName": null, "organismRemarks": null, "tags": null, "speciesGroup": "Birds", "datatableName": null, "datatableAnnotations": null, "basisOfData": null }, "geometry": { "type": "Point", "coordinates": [ 73.6798096, 20.0481104 ] } },
{ "type": "Feature", "properties": { "catalogNumber": 15923038, "createdBy": "Dhanashree", "placeName": "Gangapur Dam, Nashik, Maharashtra 422222", "flagNotes": null, "noOfIdentifications": 3, "geoPrivacy": false, "createdOn (UTC)": "30/09/2020", "createdOn (Portal time)": "30/09/2020", "associatedMedia": "/b5daca37-5cc7-4311-a0d0-f4cb5761e065/33634.JPG", "group_id": "Birds", "dateAccuracy": "ACCURATE", "isLocked": true, "locationLat": 20.0481104, "locationLon": 73.6798096, "locationScale": "ACCURATE", "fromDate": "21/08/2017", "toDate": "21/08/2017", "rank": "species", "scientificName": "Accipiter badius (J.F. Gmelin 1788)", "commonName": "Shikra:English", "kingdom": "Animalia", "phylum": "Chordata", "class": "Aves", "order": "Accipitriformes", "superfamily": null, "family": "Accipitridae", "genus": "Accipiter", "species": null, "basisOfRecord": "HUMAN_OBSERVATION", "village name in english": null, "village name in kannada": null, "village id": null, "plot id": null, "plant habit in english": null, "plant habit in kannada": null, "plant habitat in english": null, "plant habitat in kannada": null, "Folklore: A story about this tree": null, "Uses: This tree is used for": null, "Institution Name": null, "Isha Vidhya School": null, "Height (m)": null, "Canopy Diameter (m)": null, "Any other comments": null, "Trunk Circumference (cm)": null, "Did you observe ants on the plant?": null, "Did you observe hemipterans on the plant?": null, "Which part of the plant is infested with insects?": null, "What proportion of the plant is infested?": null, "Did you find any other insects besides ants and hemipterans?": null, "Which of the following hemipteran species have you observed?": null, "Which ant species did you observe?": null, "Texture": null, "Has stem?": null, "Bottom surface": null, "Growing on": null, "Ecological Role": null, "Edibility status": null, "GBH": null, "Trunk Area": null, "DBH": null, "Plot No.": null, "Canopy Cover": null, "Understory": null, "Number of birds observed.": null, "What behaviours did you observe?": null, "Weather conditions.": null, "How do you feel about the presence of crows in your area?": null, "speciesPageId": null, "previousVernacularNames": "316943#Shikra:English | ", "higherClassificationId": "name:Root#rank:root#taxonID:1 | name:Animalia#rank:kingdom#taxonID:872 | name:Chordata#rank:phylum#taxonID:20218 | name:Aves#rank:class#taxonID:22426 | name:Accipitriformes#rank:order#taxonID:263796 | name:Accipitridae#rank:family#taxonID:90828 | name:Accipiter#rank:genus#taxonID:90954 | name:Accipiter badius (J.F. Gmelin 1788)#rank:species#taxonID:90968", "reverseGeocodedName": "Gangapur Dam, Nashik, Maharashtra 422222", "tahsil": "Nashik", "state": "MAHARASHTRA", "district": "Nashik", "Sex": null, "Life Stage (Complete Metamorphosis)": null, "Life Stage (Incomplete Metamorphosis)": null, "Phenology State": null, "Habitat Type": "Lakeside | Urban | Plantation", "Abundance": "Occasional", "Life Stage": null, "Activity": null, "Microhabitat": null, "Wild/Domestic": "Wild", "toDate_1": "2017-08-21T18:30:00Z", "observedInMonth": "August", "lastRevised": "2020-10-07T03:44:19.824Z", "noOfImages": 2, "containsMedia": true, "uploadProtocol": "SINGLE_OBSERVATION", "datasetName": null, "organismRemarks": null, "tags": null, "speciesGroup": "Birds", "datatableName": null, "datatableAnnotations": null, "basisOfData": null }, "geometry": { "type": "Point", "coordinates": [ 73.6798096, 20.0481104 ] } },
{ "type": "Feature", "properties": { "catalogNumber": 15922559, "createdBy": "Dhanashree", "placeName": "Gangapur Dam, Nashik, Maharashtra 422222", "flagNotes": null, "noOfIdentifications": 3, "geoPrivacy": false, "createdOn (UTC)": "30/09/2020", "createdOn (Portal time)": "30/09/2020", "associatedMedia": "/a8ecc9f7-9841-413c-962e-f022e03c4a36/33582.JPG", "group_id": "Birds", "dateAccuracy": "ACCURATE", "isLocked": true, "locationLat": 20.0481104, "locationLon": 73.6798096, "locationScale": "APPROXIMATE", "fromDate": "20/08/2017", "toDate": "20/08/2017", "rank": "species", "scientificName": "Pavo cristatus Linnaeus 1758", "commonName": null, "kingdom": "Animalia", "phylum": "Chordata", "class": "Aves", "order": "Galliformes", "superfamily": null, "family": "Phasianidae", "genus": "Pavo", "species": null, "basisOfRecord": "HUMAN_OBSERVATION", "village name in english": null, "village name in kannada": null, "village id": null, "plot id": null, "plant habit in english": null, "plant habit in kannada": null, "plant habitat in english": null, "plant habitat in kannada": null, "Folklore: A story about this tree": null, "Uses: This tree is used for": null, "Institution Name": null, "Isha Vidhya School": null, "Height (m)": null, "Canopy Diameter (m)": null, "Any other comments": null, "Trunk Circumference (cm)": null, "Did you observe ants on the plant?": null, "Did you observe hemipterans on the plant?": null, "Which part of the plant is infested with insects?": null, "What proportion of the plant is infested?": null, "Did you find any other insects besides ants and hemipterans?": null, "Which of the following hemipteran species have you observed?": null, "Which ant species did you observe?": null, "Texture": null, "Has stem?": null, "Bottom surface": null, "Growing on": null, "Ecological Role": null, "Edibility status": null, "GBH": null, "Trunk Area": null, "DBH": null, "Plot No.": null, "Canopy Cover": null, "Understory": null, "Number of birds observed.": null, "What behaviours did you observe?": null, "Weather conditions.": null, "How do you feel about the presence of crows in your area?": null, "speciesPageId": null, "previousVernacularNames": null, "higherClassificationId": "name:Root#rank:root#taxonID:1 | name:Animalia#rank:kingdom#taxonID:872 | name:Chordata#rank:phylum#taxonID:20218 | name:Aves#rank:class#taxonID:22426 | name:Galliformes#rank:order#taxonID:33664 | name:Phasianidae#rank:family#taxonID:33666 | name:Pavo#rank:genus#taxonID:90010 | name:Pavo cristatus Linnaeus 1758#rank:species#taxonID:90015", "reverseGeocodedName": "Gangapur Dam, Nashik, Maharashtra 422222", "tahsil": "Nashik", "state": "MAHARASHTRA", "district": "Nashik", "Sex": "Male", "Life Stage (Complete Metamorphosis)": null, "Life Stage (Incomplete Metamorphosis)": null, "Phenology State": null, "Habitat Type": "Lakeside | Urban | Plantation", "Abundance": "Frequent", "Life Stage": null, "Activity": null, "Microhabitat": null, "Wild/Domestic": "Wild", "toDate_1": "2017-08-20T18:30:00Z", "observedInMonth": "August", "lastRevised": "2020-10-01T09:02:22.008Z", "noOfImages": 1, "containsMedia": true, "uploadProtocol": "SINGLE_OBSERVATION", "datasetName": null, "organismRemarks": null, "tags": "Males doing parallel walk", "speciesGroup": "Birds", "datatableName": null, "datatableAnnotations": null, "basisOfData": null }, "geometry": { "type": "Point", "coordinates": [ 73.6798096, 20.0481104 ] } },
{ "type": "Feature", "properties": { "catalogNumber": 15922282, "createdBy": "Dhanashree", "placeName": "Gangapur Dam, Nashik, Maharashtra 422222", "flagNotes": null, "noOfIdentifications": 3, "geoPrivacy": false, "createdOn (UTC)": "30/09/2020", "createdOn (Portal time)": "30/09/2020", "associatedMedia": "/09ca13fe-f6bc-4f1c-ab19-96b6d31d5cd2/33555.JPG", "group_id": "Birds", "dateAccuracy": "ACCURATE", "isLocked": true, "locationLat": 20.0481104, "locationLon": 73.6798096, "locationScale": "ACCURATE", "fromDate": "19/08/2017", "toDate": "19/08/2017", "rank": "species", "scientificName": "Pavo cristatus Linnaeus 1758", "commonName": null, "kingdom": "Animalia", "phylum": "Chordata", "class": "Aves", "order": "Galliformes", "superfamily": null, "family": "Phasianidae", "genus": "Pavo", "species": null, "basisOfRecord": "HUMAN_OBSERVATION", "village name in english": null, "village name in kannada": null, "village id": null, "plot id": null, "plant habit in english": null, "plant habit in kannada": null, "plant habitat in english": null, "plant habitat in kannada": null, "Folklore: A story about this tree": null, "Uses: This tree is used for": null, "Institution Name": null, "Isha Vidhya School": null, "Height (m)": null, "Canopy Diameter (m)": null, "Any other comments": null, "Trunk Circumference (cm)": null, "Did you observe ants on the plant?": null, "Did you observe hemipterans on the plant?": null, "Which part of the plant is infested with insects?": null, "What proportion of the plant is infested?": null, "Did you find any other insects besides ants and hemipterans?": null, "Which of the following hemipteran species have you observed?": null, "Which ant species did you observe?": null, "Texture": null, "Has stem?": null, "Bottom surface": null, "Growing on": null, "Ecological Role": null, "Edibility status": null, "GBH": null, "Trunk Area": null, "DBH": null, "Plot No.": null, "Canopy Cover": null, "Understory": null, "Number of birds observed.": null, "What behaviours did you observe?": null, "Weather conditions.": null, "How do you feel about the presence of crows in your area?": null, "speciesPageId": null, "previousVernacularNames": null, "higherClassificationId": "name:Root#rank:root#taxonID:1 | name:Animalia#rank:kingdom#taxonID:872 | name:Chordata#rank:phylum#taxonID:20218 | name:Aves#rank:class#taxonID:22426 | name:Galliformes#rank:order#taxonID:33664 | name:Phasianidae#rank:family#taxonID:33666 | name:Pavo#rank:genus#taxonID:90010 | name:Pavo cristatus Linnaeus 1758#rank:species#taxonID:90015", "reverseGeocodedName": "Gangapur Dam, Nashik, Maharashtra 422222", "tahsil": "Nashik", "state": "MAHARASHTRA", "district": "Nashik", "Sex": "Male | Female", "Life Stage (Complete Metamorphosis)": null, "Life Stage (Incomplete Metamorphosis)": null, "Phenology State": null, "Habitat Type": "Lakeside | Urban | Plantation", "Abundance": "Frequent", "Life Stage": null, "Activity": null, "Microhabitat": null, "Wild/Domestic": "Wild", "toDate_1": "2017-08-19T18:30:00Z", "observedInMonth": "August", "lastRevised": "2020-10-01T09:02:30.196Z", "noOfImages": 3, "containsMedia": true, "uploadProtocol": "SINGLE_OBSERVATION", "datasetName": null, "organismRemarks": null, "tags": null, "speciesGroup": "Birds", "datatableName": null, "datatableAnnotations": null, "basisOfData": null }, "geometry": { "type": "Point", "coordinates": [ 73.6798096, 20.0481104 ] } },
{ "type": "Feature", "properties": { "catalogNumber": 15921780, "createdBy": "Dhanashree", "placeName": "Dindori Road, CDO-Meri Colony, CDO-MERI Colony, Nashik, Maharashtra 422004, India", "flagNotes": null, "noOfIdentifications": 3, "geoPrivacy": false, "createdOn (UTC)": "30/09/2020", "createdOn (Portal time)": "30/09/2020", "associatedMedia": "/8ac3a4ba-3937-4345-b624-a68f61bd57a7/33504.JPG", "group_id": "Birds", "dateAccuracy": "ACCURATE", "isLocked": true, "locationLat": 20.0296334, "locationLon": 73.8027154, "locationScale": "ACCURATE", "fromDate": "02/11/2017", "toDate": "02/11/2017", "rank": "species", "scientificName": "Pavo cristatus Linnaeus 1758", "commonName": null, "kingdom": "Animalia", "phylum": "Chordata", "class": "Aves", "order": "Galliformes", "superfamily": null, "family": "Phasianidae", "genus": "Pavo", "species": null, "basisOfRecord": "HUMAN_OBSERVATION", "village name in english": null, "village name in kannada": null, "village id": null, "plot id": null, "plant habit in english": null, "plant habit in kannada": null, "plant habitat in english": null, "plant habitat in kannada": null, "Folklore: A story about this tree": null, "Uses: This tree is used for": null, "Institution Name": null, "Isha Vidhya School": null, "Height (m)": null, "Canopy Diameter (m)": null, "Any other comments": null, "Trunk Circumference (cm)": null, "Did you observe ants on the plant?": null, "Did you observe hemipterans on the plant?": null, "Which part of the plant is infested with insects?": null, "What proportion of the plant is infested?": null, "Did you find any other insects besides ants and hemipterans?": null, "Which of the following hemipteran species have you observed?": null, "Which ant species did you observe?": null, "Texture": null, "Has stem?": null, "Bottom surface": null, "Growing on": null, "Ecological Role": null, "Edibility status": null, "GBH": null, "Trunk Area": null, "DBH": null, "Plot No.": null, "Canopy Cover": null, "Understory": null, "Number of birds observed.": null, "What behaviours did you observe?": null, "Weather conditions.": null, "How do you feel about the presence of crows in your area?": null, "speciesPageId": null, "previousVernacularNames": null, "higherClassificationId": "name:Root#rank:root#taxonID:1 | name:Animalia#rank:kingdom#taxonID:872 | name:Chordata#rank:phylum#taxonID:20218 | name:Aves#rank:class#taxonID:22426 | name:Galliformes#rank:order#taxonID:33664 | name:Phasianidae#rank:family#taxonID:33666 | name:Pavo#rank:genus#taxonID:90010 | name:Pavo cristatus Linnaeus 1758#rank:species#taxonID:90015", "reverseGeocodedName": "Dindori Road, CDO-Meri Colony, CDO-MERI Colony, Nashik, Maharashtra 422004, India", "tahsil": "Nashik", "state": "MAHARASHTRA", "district": "Nashik", "Sex": "Female", "Life Stage (Complete Metamorphosis)": null, "Life Stage (Incomplete Metamorphosis)": null, "Phenology State": null, "Habitat Type": "Urban | Plantation", "Abundance": "Common", "Life Stage": null, "Activity": null, "Microhabitat": null, "Wild/Domestic": "Wild", "toDate_1": "2017-11-02T18:30:00Z", "observedInMonth": "November", "lastRevised": "2020-10-01T09:02:41.029Z", "noOfImages": 1, "containsMedia": true, "uploadProtocol": "SINGLE_OBSERVATION", "datasetName": null, "organismRemarks": null, "tags": "Female with chicks", "speciesGroup": "Birds", "datatableName": null, "datatableAnnotations": null, "basisOfData": null }, "geometry": { "type": "Point", "coordinates": [ 73.8027154, 20.0296334 ] } },
{ "type": "Feature", "properties": { "catalogNumber": 15921655, "createdBy": "Dhanashree", "placeName": "Dindori Road, CDO-Meri Colony, CDO-MERI Colony, Nashik, Maharashtra 422004, India", "flagNotes": null, "noOfIdentifications": 3, "geoPrivacy": false, "createdOn (UTC)": "30/09/2020", "createdOn (Portal time)": "30/09/2020", "associatedMedia": "/54881e38-ed70-40a0-8830-9faec0565de3/33485.JPG", "group_id": "Birds", "dateAccuracy": "ACCURATE", "isLocked": true, "locationLat": 20.0296334, "locationLon": 73.8027154, "locationScale": "ACCURATE", "fromDate": "01/11/2017", "toDate": "01/11/2017", "rank": "species", "scientificName": "Pavo cristatus Linnaeus 1758", "commonName": null, "kingdom": "Animalia", "phylum": "Chordata", "class": "Aves", "order": "Galliformes", "superfamily": null, "family": "Phasianidae", "genus": "Pavo", "species": null, "basisOfRecord": "HUMAN_OBSERVATION", "village name in english": null, "village name in kannada": null, "village id": null, "plot id": null, "plant habit in english": null, "plant habit in kannada": null, "plant habitat in english": null, "plant habitat in kannada": null, "Folklore: A story about this tree": null, "Uses: This tree is used for": null, "Institution Name": null, "Isha Vidhya School": null, "Height (m)": null, "Canopy Diameter (m)": null, "Any other comments": null, "Trunk Circumference (cm)": null, "Did you observe ants on the plant?": null, "Did you observe hemipterans on the plant?": null, "Which part of the plant is infested with insects?": null, "What proportion of the plant is infested?": null, "Did you find any other insects besides ants and hemipterans?": null, "Which of the following hemipteran species have you observed?": null, "Which ant species did you observe?": null, "Texture": null, "Has stem?": null, "Bottom surface": null, "Growing on": null, "Ecological Role": null, "Edibility status": null, "GBH": null, "Trunk Area": null, "DBH": null, "Plot No.": null, "Canopy Cover": null, "Understory": null, "Number of birds observed.": null, "What behaviours did you observe?": null, "Weather conditions.": null, "How do you feel about the presence of crows in your area?": null, "speciesPageId": null, "previousVernacularNames": null, "higherClassificationId": "name:Root#rank:root#taxonID:1 | name:Animalia#rank:kingdom#taxonID:872 | name:Chordata#rank:phylum#taxonID:20218 | name:Aves#rank:class#taxonID:22426 | name:Galliformes#rank:order#taxonID:33664 | name:Phasianidae#rank:family#taxonID:33666 | name:Pavo#rank:genus#taxonID:90010 | name:Pavo cristatus Linnaeus 1758#rank:species#taxonID:90015", "reverseGeocodedName": "Dindori Road, CDO-Meri Colony, CDO-MERI Colony, Nashik, Maharashtra 422004, India", "tahsil": "Nashik", "state": "MAHARASHTRA", "district": "Nashik", "Sex": "Male", "Life Stage (Complete Metamorphosis)": null, "Life Stage (Incomplete Metamorphosis)": null, "Phenology State": null, "Habitat Type": "Urban | Plantation", "Abundance": "Common", "Life Stage": null, "Activity": null, "Microhabitat": null, "Wild/Domestic": "Wild", "toDate_1": "2017-11-01T18:30:00Z", "observedInMonth": "November", "lastRevised": "2020-10-01T09:02:49.193Z", "noOfImages": 1, "containsMedia": true, "uploadProtocol": "SINGLE_OBSERVATION", "datasetName": null, "organismRemarks": null, "tags": null, "speciesGroup": "Birds", "datatableName": null, "datatableAnnotations": null, "basisOfData": null }, "geometry": { "type": "Point", "coordinates": [ 73.8027154, 20.0296334 ] } },
{ "type": "Feature", "properties": { "catalogNumber": 387256, "createdBy": "Chief RedEarth", "placeName": "Veer Savarkar Udyan, Purnvad Nagar, Nashik, Maharashtra 422013, India", "flagNotes": null, "noOfIdentifications": 1, "geoPrivacy": false, "createdOn (UTC)": "07/08/2015", "createdOn (Portal time)": "07/08/2015", "associatedMedia": "/cddb0a60-529d-4737-9b92-fa03ba426063/833.JPG", "group_id": "Birds", "dateAccuracy": null, "isLocked": false, "locationLat": 20.016136169433594, "locationLon": 73.757255554199219, "locationScale": "ACCURATE", "fromDate": "01/08/2015", "toDate": "01/08/2015", "rank": "class", "scientificName": "Aves", "commonName": null, "kingdom": "Animalia", "phylum": "Chordata", "class": null, "order": null, "superfamily": null, "family": null, "genus": null, "species": null, "basisOfRecord": "HUMAN_OBSERVATION", "village name in english": null, "village name in kannada": null, "village id": null, "plot id": null, "plant habit in english": null, "plant habit in kannada": null, "plant habitat in english": null, "plant habitat in kannada": null, "Folklore: A story about this tree": null, "Uses: This tree is used for": null, "Institution Name": null, "Isha Vidhya School": null, "Height (m)": null, "Canopy Diameter (m)": null, "Any other comments": null, "Trunk Circumference (cm)": null, "Did you observe ants on the plant?": null, "Did you observe hemipterans on the plant?": null, "Which part of the plant is infested with insects?": null, "What proportion of the plant is infested?": null, "Did you find any other insects besides ants and hemipterans?": null, "Which of the following hemipteran species have you observed?": null, "Which ant species did you observe?": null, "Texture": null, "Has stem?": null, "Bottom surface": null, "Growing on": null, "Ecological Role": null, "Edibility status": null, "GBH": null, "Trunk Area": null, "DBH": null, "Plot No.": null, "Canopy Cover": null, "Understory": null, "Number of birds observed.": null, "What behaviours did you observe?": null, "Weather conditions.": null, "How do you feel about the presence of crows in your area?": null, "speciesPageId": null, "previousVernacularNames": null, "higherClassificationId": "name:Root#rank:root#taxonID:1 | name:Animalia#rank:kingdom#taxonID:872 | name:Chordata#rank:phylum#taxonID:20218 | name:Aves#rank:class#taxonID:22426", "reverseGeocodedName": "Veer Savarkar Udyan, Purnvad Nagar, Nashik, Maharashtra 422013, India", "tahsil": "Nashik", "state": "MAHARASHTRA", "district": "Nashik", "Sex": null, "Life Stage (Complete Metamorphosis)": null, "Life Stage (Incomplete Metamorphosis)": null, "Phenology State": null, "Habitat Type": null, "Abundance": null, "Life Stage": null, "Activity": null, "Microhabitat": null, "Wild/Domestic": null, "toDate_1": "2015-08-01T00:00:00Z", "observedInMonth": "August", "lastRevised": "2022-01-07T10:04:53.482Z", "noOfImages": 1, "containsMedia": true, "uploadProtocol": "SINGLE_OBSERVATION", "datasetName": null, "organismRemarks": "This bird is smaller than a C. Myna and larger than a O. Magpie Robin, looks like a starling but behaves like a flycatcher.", "tags": null, "speciesGroup": "Birds", "datatableName": null, "datatableAnnotations": null, "basisOfData": null }, "geometry": { "type": "Point", "coordinates": [ 73.757255554199219, 20.016136169433594 ] } }
]
}
