{
"type": "FeatureCollection",
"name": "plants_maharashtra",
"crs": { "type": "name", "properties": { "name": "urn:ogc:def:crs:OGC:1.3:CRS84" } },
"xy_coordinate_resolution": 1e-15,
"features": [
{ "type": "Feature", "properties": { "catalogNumber": 16393245, "createdBy": "Omkar Kane", "placeName": "Gangapur Rd, Kale Nagar, Anand Vihar Colony, Anandvalli, Nashik, Maharashtra 422013, India", "flagNotes": null, "noOfIdentifications": 3, "geoPrivacy": false, "createdOn (UTC)": "23/04/2021", "createdOn (Portal time)": "23/04/2021", "associatedMedia": "/899f5dea-eb4f-4026-8ddf-10b123636768/bd32de8fe31f416cb85bb3567b72302c.jpg", "group_id": "Plants", "dateAccuracy": "ACCURATE", "isLocked": false, "locationLat": 20.0117, "locationLon": 73.7489, "locationScale": "ACCURATE", "fromDate": "22/04/2021", "toDate": "22/04/2021", "rank": "species", "scientificName": "Terminalia arjuna (Roxb.) Wight & Arn.", "commonName": "Arjun:English", "kingdom": "Plantae", "phylum": "Tracheophyta", "class": "Magnoliopsida", "order": "Myrtales", "superfamily": null, "family": "Combretaceae", "genus": "Terminalia", "species": null, "basisOfRecord": "HUMAN_OBSERVATION", "plant habit in english": null, "plant habitat in english": null, "village name in english": null, "Folklore: A story about this tree": null, "Uses: This tree is used for": "Medication", "Height (m)": null, "Canopy Diameter (m)": null, "Trunk Circumference (cm)": null, "Texture": null, "Has stem?": null, "Growing on": null, "Bottom surface": null, "Ecological Role": null, "Edibility status": null, "Canopy Cover": null, "Understory": null, "Trunk Area": null, "Number of birds observed.": null, "higherClassificationId": "name:Root#rank:root#taxonID:1 | name:Plantae#rank:kingdom#taxonID:2998 | name:Tracheophyta#rank:phylum#taxonID:33364 | name:Magnoliopsida#rank:class#taxonID:33366 | name:Myrtales#rank:order#taxonID:4355 | name:Combretaceae#rank:family#taxonID:6452 | name:Terminalia#rank:genus#taxonID:6454 | name:Terminalia arjuna (Roxb.) Wight & Arn.#rank:species#taxonID:30040", "speciesPageId": null, "previousVernacularNames": "369161#Arjun:English | ", "previousIdentifications": "369161#Terminalia arjuna (Roxb.) Wight & Arn. | ", "state": "MAHARASHTRA", "tahsil": "Nashik", "district": "Nashik", "Phenology State": null, "Habitat Type": null, "Abundance": null, "speciesGroup": "Plants" }, "geometry": { "type": "Point", "coordinates": [ 73.7489, 20.0117 ] } },
{ "type": "Feature", "properties": { "catalogNumber": 16393099, "createdBy": "Deepti Mudartha", "placeName": "Gat 36/2, Govardhan Village, Off, Gangapur-Savargaon Rd, Nashik, Maharashtra 422222", "flagNotes": null, "noOfIdentifications": 1, "geoPrivacy": false, "createdOn (UTC)": "23/04/2021", "createdOn (Portal time)": "23/04/2021", "associatedMedia": "/e5f86b3d-8eff-4db8-8664-509ed8943060/0c1e3f46c21c40dd8f9161dffcac78b2.jpg", "group_id": "Plants", "dateAccuracy": "ACCURATE", "isLocked": false, "locationLat": 20.0068729, "locationLon": 73.6885, "locationScale": "ACCURATE", "fromDate": "20/02/2021", "toDate": "20/02/2021", "rank": "species", "scientificName": "Pennisetum setaceum (Forssk.) Chiov.", "commonName": "Purple Fountain Grass:English", "kingdom": "Plantae", "phylum": "Tracheophyta", "class": "Liliopsida", "order": "Poales", "superfamily": null, "family": "Poaceae", "genus": "Pennisetum", "species": null, "basisOfRecord": "HUMAN_OBSERVATION", "plant habit in english": null, "plant habitat in english": null, "village name in english": null, "Folklore: A story about this tree": null, "Uses: This tree is used for": null, "Height (m)": null, "Canopy Diameter (m)": null, "Trunk Circumference (cm)": null, "Texture": null, "Has stem?": null, "Growing on": null, "Bottom surface": null, "Ecological Role": null, "Edibility status": null, "Canopy Cover": null, "Understory": null, "Trunk Area": null, "Number of birds observed.": null, "higherClassificationId": "name:Root#rank:root#taxonID:1 | name:Plantae#rank:kingdom#taxonID:2998 | name:Tracheophyta#rank:phylum#taxonID:33364 | name:Liliopsida#rank:class#taxonID:107311 | name:Poales#rank:order#taxonID:107313 | name:Poaceae#rank:family#taxonID:30795 | name:Pennisetum#rank:genus#taxonID:108357 | name:Pennisetum setaceum (Forssk.) Chiov.#rank:species#taxonID:43554", "speciesPageId": null, "previousVernacularNames": "388672#Purple Fountain Grass:English | ", "previousIdentifications": "388672#Pennisetum setaceum (Forssk.) Chiov. | ", "state": "MAHARASHTRA", "tahsil": "Nashik", "district": "Nashik", "Phenology State": null, "Habitat Type": "Rural | Grassland | Garden", "Abundance": "Abundant", "speciesGroup": "Plants" }, "geometry": { "type": "Point", "coordinates": [ 73.6885, 20.0068729 ] } },
{ "type": "Feature", "properties": { "catalogNumber": 16393023, "createdBy": "Deepti Mudartha", "placeName": "Gat 36/2, Govardhan Village, Off, Gangapur-Savargaon Rd, Nashik, Maharashtra 422222", "flagNotes": null, "noOfIdentifications": 1, "geoPrivacy": false, "createdOn (UTC)": "23/04/2021", "createdOn (Portal time)": "23/04/2021", "associatedMedia": "/5769b678-f6ac-4044-9d5f-53a5623099b5/5e3414b7672c42b283da2297374f3094.jpg", "group_id": "Plants", "dateAccuracy": "ACCURATE", "isLocked": false, "locationLat": 20.0068729, "locationLon": 73.6885, "locationScale": "ACCURATE", "fromDate": "20/02/2021", "toDate": "20/02/2021", "rank": "species", "scientificName": "Helianthus annuus L.", "commonName": "Sunflower:English", "kingdom": "Plantae", "phylum": "Tracheophyta", "class": "Magnoliopsida", "order": "Asterales", "superfamily": null, "family": "Asteraceae", "genus": "Helianthus", "species": null, "basisOfRecord": "HUMAN_OBSERVATION", "plant habit in english": null, "plant habitat in english": null, "village name in english": null, "Folklore: A story about this tree": null, "Uses: This tree is used for": null, "Height (m)": null, "Canopy Diameter (m)": null, "Trunk Circumference (cm)": null, "Texture": null, "Has stem?": null, "Growing on": null, "Bottom surface": null, "Ecological Role": null, "Edibility status": null, "Canopy Cover": null, "Understory": null, "Trunk Area": null, "Number of birds observed.": null, "higherClassificationId": "name:Root#rank:root#taxonID:1 | name:Plantae#rank:kingdom#taxonID:2998 | name:Tracheophyta#rank:phylum#taxonID:33364 | name:Magnoliopsida#rank:class#taxonID:33366 | name:Asterales#rank:order#taxonID:6707 | name:Asteraceae#rank:family#taxonID:6709 | name:Helianthus#rank:genus#taxonID:120671 | name:Helianthus annuus L.#rank:species#taxonID:40267", "speciesPageId": null, "previousVernacularNames": "316224#Sunflower:English | ", "previousIdentifications": "316224#Helianthus annuus L. | ", "state": "MAHARASHTRA", "tahsil": "Nashik", "district": "Nashik", "Phenology State": "Flowers | Fresh leaves", "Habitat Type": "Rural | Plantation | Garden", "Abundance": "Common", "speciesGroup": "Plants" }, "geometry": { "type": "Point", "coordinates": [ 73.6885, 20.0068729 ] } },
{ "type": "Feature", "properties": { "catalogNumber": 16392999, "createdBy": "Deepti Mudartha", "placeName": "Ambedkar Nagar, नाशिक, महाराष्ट्र 422222", "flagNotes": null, "noOfIdentifications": 1, "geoPrivacy": false, "createdOn (UTC)": "23/04/2021", "createdOn (Portal time)": "23/04/2021", "associatedMedia": "/4168c698-f598-4ccc-9b59-fe861b8acb95/f534083e9c994cd9ad7c04b1f7ccd537.jpg", "group_id": "Plants", "dateAccuracy": "ACCURATE", "isLocked": false, "locationLat": 20.0291612, "locationLon": 73.7234149, "locationScale": "ACCURATE", "fromDate": "20/02/2021", "toDate": "20/02/2021", "rank": "species", "scientificName": "Azolla pinnata", "commonName": "Mosquito Fern:English", "kingdom": "Plantae", "phylum": "Tracheophyta", "class": "Polypodiopsida", "order": "Salviniales", "superfamily": null, "family": "Salviniaceae", "genus": "Azolla", "species": null, "basisOfRecord": "HUMAN_OBSERVATION", "plant habit in english": null, "plant habitat in english": null, "village name in english": null, "Folklore: A story about this tree": null, "Uses: This tree is used for": null, "Height (m)": null, "Canopy Diameter (m)": null, "Trunk Circumference (cm)": null, "Texture": null, "Has stem?": null, "Growing on": null, "Bottom surface": null, "Ecological Role": null, "Edibility status": null, "Canopy Cover": null, "Understory": null, "Trunk Area": null, "Number of birds observed.": null, "higherClassificationId": "name:Root#rank:root#taxonID:1 | name:Plantae#rank:kingdom#taxonID:2998 | name:Tracheophyta#rank:phylum#taxonID:33364 | name:Polypodiopsida#rank:class#taxonID:211190 | name:Salviniales#rank:order#taxonID:212202 | name:Salviniaceae#rank:family#taxonID:168633 | name:Azolla#rank:genus#taxonID:104403 | name:Azolla pinnata#rank:species#taxonID:104405", "speciesPageId": null, "previousVernacularNames": "326264#Mosquito Fern:English | ", "previousIdentifications": "326264#Azolla pinnata | ", "state": "MAHARASHTRA", "tahsil": "Nashik", "district": "Nashik", "Phenology State": "Fresh leaves", "Habitat Type": "Rural | Cave | River | Stream", "Abundance": "Abundant", "speciesGroup": "Plants" }, "geometry": { "type": "Point", "coordinates": [ 73.7234149, 20.0291612 ] } },
{ "type": "Feature", "properties": { "catalogNumber": 15922406, "createdBy": "Dhanashree", "placeName": "Boargad, Nashik, Maharashtra 422004, India", "flagNotes": null, "noOfIdentifications": 0, "geoPrivacy": false, "createdOn (UTC)": "30/09/2020", "createdOn (Portal time)": "30/09/2020", "associatedMedia": "/7f9bad28-abcb-4725-90bf-dd3d22783fad/33570.JPG", "group_id": "Plants", "dateAccuracy": "ACCURATE", "isLocked": false, "locationLat": 20.0560781, "locationLon": 73.7970575, "locationScale": "APPROXIMATE", "fromDate": "20/08/2017", "toDate": "20/08/2017", "rank": null, "scientificName": null, "commonName": null, "kingdom": null, "phylum": null, "class": null, "order": null, "superfamily": null, "family": null, "genus": null, "species": null, "basisOfRecord": "HUMAN_OBSERVATION", "plant habit in english": null, "plant habitat in english": null, "village name in english": null, "Folklore: A story about this tree": null, "Uses: This tree is used for": null, "Height (m)": null, "Canopy Diameter (m)": null, "Trunk Circumference (cm)": null, "Texture": null, "Has stem?": null, "Growing on": null, "Bottom surface": null, "Ecological Role": null, "Edibility status": null, "Canopy Cover": null, "Understory": null, "Trunk Area": null, "Number of birds observed.": null, "higherClassificationId": null, "speciesPageId": null, "previousVernacularNames": null, "previousIdentifications": null, "state": "MAHARASHTRA", "tahsil": "Nashik", "district": "Nashik", "Phenology State": "Flowers", "Habitat Type": null, "Abundance": "Rare", "speciesGroup": "Plants" }, "geometry": { "type": "Point", "coordinates": [ 73.7970575, 20.0560781 ] } },
{ "type": "Feature", "properties": { "catalogNumber": 15922385, "createdBy": "Dhanashree", "placeName": "Boargad, Nashik, Maharashtra 422004, India", "flagNotes": null, "noOfIdentifications": 0, "geoPrivacy": false, "createdOn (UTC)": "30/09/2020", "createdOn (Portal time)": "30/09/2020", "associatedMedia": "/c3f3d942-60ce-4cc6-acc5-823a9c10f03d/33567.JPG", "group_id": "Plants", "dateAccuracy": "ACCURATE", "isLocked": false, "locationLat": 20.0560781, "locationLon": 73.7970575, "locationScale": "APPROXIMATE", "fromDate": "20/08/2017", "toDate": "20/08/2017", "rank": null, "scientificName": null, "commonName": null, "kingdom": null, "phylum": null, "class": null, "order": null, "superfamily": null, "family": null, "genus": null, "species": null, "basisOfRecord": "HUMAN_OBSERVATION", "plant habit in english": null, "plant habitat in english": null, "village name in english": null, "Folklore: A story about this tree": null, "Uses: This tree is used for": null, "Height (m)": null, "Canopy Diameter (m)": null, "Trunk Circumference (cm)": null, "Texture": null, "Has stem?": null, "Growing on": null, "Bottom surface": null, "Ecological Role": null, "Edibility status": null, "Canopy Cover": null, "Understory": null, "Trunk Area": null, "Number of birds observed.": null, "higherClassificationId": null, "speciesPageId": null, "previousVernacularNames": null, "previousIdentifications": null, "state": "MAHARASHTRA", "tahsil": "Nashik", "district": "Nashik", "Phenology State": "Flowers", "Habitat Type": null, "Abundance": "Rare", "speciesGroup": "Plants" }, "geometry": { "type": "Point", "coordinates": [ 73.7970575, 20.0560781 ] } },
{ "type": "Feature", "properties": { "catalogNumber": 1750183, "createdBy": "Shailesh Maind", "placeName": "Tukaram Kale Rd, Kale Nagar, Rambhoomi, Nashik, Maharashtra 422013, India", "flagNotes": null, "noOfIdentifications": 2, "geoPrivacy": false, "createdOn (UTC)": "18/09/2017", "createdOn (Portal time)": "19/09/2017", "associatedMedia": "/54e6a025-a886-4805-bca6-d568e23a9075/347.jpg", "group_id": "Plants", "dateAccuracy": null, "isLocked": false, "locationLat": 20.011594772338867, "locationLon": 73.747222900390625, "locationScale": "APPROXIMATE", "fromDate": "18/09/2017", "toDate": "18/09/2017", "rank": "species", "scientificName": "Passiflora incarnata L.", "commonName": "Purple Passion Flower:null", "kingdom": "Plantae", "phylum": "Tracheophyta", "class": "Equisetopsida C. Agardh", "order": "Malpighiales Juss. ex Bercht. & J. Presl", "superfamily": null, "family": "Passifloraceae", "genus": "Passiflora", "species": null, "basisOfRecord": "HUMAN_OBSERVATION", "plant habit in english": null, "plant habitat in english": null, "village name in english": null, "Folklore: A story about this tree": null, "Uses: This tree is used for": null, "Height (m)": null, "Canopy Diameter (m)": null, "Trunk Circumference (cm)": null, "Texture": null, "Has stem?": null, "Growing on": null, "Bottom surface": null, "Ecological Role": null, "Edibility status": null, "Canopy Cover": null, "Understory": null, "Trunk Area": null, "Number of birds observed.": null, "higherClassificationId": "name:Root#rank:root#taxonID:1 | name:Plantae#rank:kingdom#taxonID:2998 | name:Tracheophyta#rank:phylum#taxonID:33364 | name:Equisetopsida C. Agardh#rank:class#taxonID:106941 | name:Malpighiales Juss. ex Bercht. & J. Presl#rank:order#taxonID:118713 | name:Passifloraceae#rank:family#taxonID:43393 | name:Passiflora#rank:genus#taxonID:113072 | name:Passiflora incarnata L.#rank:species#taxonID:43407", "speciesPageId": null, "previousVernacularNames": "368359#Purple Passion Flower:null | ", "previousIdentifications": "368359#Passiflora incarnata L. | ", "state": "MAHARASHTRA", "tahsil": "Nashik", "district": "Nashik", "Phenology State": "Flowers", "Habitat Type": "Urban", "Abundance": "Frequent", "speciesGroup": "Plants" }, "geometry": { "type": "Point", "coordinates": [ 73.747222900390625, 20.011594772338867 ] } },
{ "type": "Feature", "properties": { "catalogNumber": 1740357, "createdBy": "Shailesh Maind", "placeName": "5-6, Gangapur Rd, Sector-A, Kale Nagar, Viveka Nand Nagar, Anandvalli, Nashik, Maharashtra 422013, India", "flagNotes": null, "noOfIdentifications": 1, "geoPrivacy": false, "createdOn (UTC)": "02/03/2017", "createdOn (Portal time)": "03/03/2017", "associatedMedia": "/f136cb90-7611-4260-9316-4f4ed8f46b7b/498.jpg", "group_id": "Plants", "dateAccuracy": null, "isLocked": false, "locationLat": 20.011594772338867, "locationLon": 73.747222900390625, "locationScale": "APPROXIMATE", "fromDate": "21/02/2017", "toDate": "21/02/2017", "rank": "species", "scientificName": "Adenium obesum", "commonName": "Desert Rose:null", "kingdom": "Plantae", "phylum": "Tracheophyta", "class": "Magnoliopsida", "order": "Gentianales", "superfamily": null, "family": "Apocynaceae", "genus": "Adenium", "species": null, "basisOfRecord": "HUMAN_OBSERVATION", "plant habit in english": null, "plant habitat in english": null, "village name in english": null, "Folklore: A story about this tree": null, "Uses: This tree is used for": null, "Height (m)": null, "Canopy Diameter (m)": null, "Trunk Circumference (cm)": null, "Texture": null, "Has stem?": null, "Growing on": null, "Bottom surface": null, "Ecological Role": null, "Edibility status": null, "Canopy Cover": null, "Understory": null, "Trunk Area": null, "Number of birds observed.": null, "higherClassificationId": "name:Root#rank:root#taxonID:1 | name:Plantae#rank:kingdom#taxonID:2998 | name:Tracheophyta#rank:phylum#taxonID:33364 | name:Magnoliopsida#rank:class#taxonID:33366 | name:Gentianales#rank:order#taxonID:3179 | name:Apocynaceae#rank:family#taxonID:3181 | name:Adenium#rank:genus#taxonID:277344 | name:Adenium obesum#rank:species#taxonID:34470", "speciesPageId": null, "previousVernacularNames": "269061#Desert Rose:null | ", "previousIdentifications": "269061#Adenium obesum | ", "state": "MAHARASHTRA", "tahsil": "Nashik", "district": "Nashik", "Phenology State": null, "Habitat Type": null, "Abundance": null, "speciesGroup": "Plants" }, "geometry": { "type": "Point", "coordinates": [ 73.747222900390625, 20.011594772338867 ] } },
{ "type": "Feature", "properties": { "catalogNumber": 1740088, "createdBy": "Shailesh Maind", "placeName": "5-6, Gangapur Rd, Sector-A, Kale Nagar, Viveka Nand Nagar, Anandvalli, Nashik, Maharashtra 422013, India", "flagNotes": null, "noOfIdentifications": 1, "geoPrivacy": false, "createdOn (UTC)": "24/02/2017", "createdOn (Portal time)": "24/02/2017", "associatedMedia": "/e170dfcb-1c66-47da-bbba-2b00ca21878c/772.jpg", "group_id": "Plants", "dateAccuracy": null, "isLocked": false, "locationLat": 20.011686325073242, "locationLon": 73.749298095703125, "locationScale": "APPROXIMATE", "fromDate": "14/02/2017", "toDate": "14/02/2017", "rank": "species", "scientificName": "Pyrostegia venusta (Ker-Gawl.) Miers", "commonName": "Flaming Trumpet:null", "kingdom": "Plantae", "phylum": "Tracheophyta", "class": "Magnoliopsida", "order": "Lamiales", "superfamily": null, "family": "Bignoniaceae", "genus": "Pyrostegia", "species": null, "basisOfRecord": "HUMAN_OBSERVATION", "plant habit in english": null, "plant habitat in english": null, "village name in english": null, "Folklore: A story about this tree": null, "Uses: This tree is used for": null, "Height (m)": null, "Canopy Diameter (m)": null, "Trunk Circumference (cm)": null, "Texture": null, "Has stem?": null, "Growing on": null, "Bottom surface": null, "Ecological Role": null, "Edibility status": null, "Canopy Cover": null, "Understory": null, "Trunk Area": null, "Number of birds observed.": null, "higherClassificationId": "name:Root#rank:root#taxonID:1 | name:Plantae#rank:kingdom#taxonID:2998 | name:Tracheophyta#rank:phylum#taxonID:33364 | name:Magnoliopsida#rank:class#taxonID:33366 | name:Lamiales#rank:order#taxonID:3554 | name:Bignoniaceae#rank:family#taxonID:5718 | name:Pyrostegia#rank:genus#taxonID:122310 | name:Pyrostegia venusta (Ker-Gawl.) Miers#rank:species#taxonID:44685", "speciesPageId": null, "previousVernacularNames": "375948#Flaming Trumpet:null | ", "previousIdentifications": "375948#Pyrostegia venusta (Ker-Gawl.) Miers | ", "state": "MAHARASHTRA", "tahsil": "Nashik", "district": "Nashik", "Phenology State": null, "Habitat Type": null, "Abundance": null, "speciesGroup": "Plants" }, "geometry": { "type": "Point", "coordinates": [ 73.749298095703125, 20.011686325073242 ] } },
{ "type": "Feature", "properties": { "catalogNumber": 1739650, "createdBy": "Shailesh Maind", "placeName": "Unnamed Road, Harsul, Maharashtra 422204, India", "flagNotes": null, "noOfIdentifications": 1, "geoPrivacy": false, "createdOn (UTC)": "07/02/2017", "createdOn (Portal time)": "07/02/2017", "associatedMedia": "/61bfb8b3-bfae-488f-a064-65647405b99d/602.jpg", "group_id": "Plants", "dateAccuracy": null, "isLocked": false, "locationLat": 20.108892440795898, "locationLon": 73.464668273925781, "locationScale": "APPROXIMATE", "fromDate": "11/12/2016", "toDate": "11/12/2016", "rank": "species", "scientificName": "Chromolaena odorata (L.) R.M.King & H.Rob.", "commonName": null, "kingdom": "Plantae", "phylum": "Tracheophyta", "class": "Magnoliopsida", "order": "Asterales", "superfamily": null, "family": "Asteraceae", "genus": "Chromolaena", "species": null, "basisOfRecord": "HUMAN_OBSERVATION", "plant habit in english": null, "plant habitat in english": null, "village name in english": null, "Folklore: A story about this tree": null, "Uses: This tree is used for": null, "Height (m)": null, "Canopy Diameter (m)": null, "Trunk Circumference (cm)": null, "Texture": null, "Has stem?": null, "Growing on": null, "Bottom surface": null, "Ecological Role": null, "Edibility status": null, "Canopy Cover": null, "Understory": null, "Trunk Area": null, "Number of birds observed.": null, "higherClassificationId": "name:Root#rank:root#taxonID:1 | name:Plantae#rank:kingdom#taxonID:2998 | name:Tracheophyta#rank:phylum#taxonID:33364 | name:Magnoliopsida#rank:class#taxonID:33366 | name:Asterales#rank:order#taxonID:6707 | name:Asteraceae#rank:family#taxonID:6709 | name:Chromolaena#rank:genus#taxonID:265322 | name:Chromolaena odorata (L.) R.M.King & H.Rob.#rank:species#taxonID:30451", "speciesPageId": null, "previousVernacularNames": null, "previousIdentifications": "268964#Chromolaena odorata (L.) R.M.King & H.Rob. | ", "state": "MAHARASHTRA", "tahsil": "Trimbakeshwar", "district": "Nashik", "Phenology State": null, "Habitat Type": null, "Abundance": null, "speciesGroup": "Plants" }, "geometry": { "type": "Point", "coordinates": [ 73.464668273925781, 20.108892440795898 ] } },
{ "type": "Feature", "properties": { "catalogNumber": 1739649, "createdBy": "Shailesh Maind", "placeName": "Unnamed Road, Chinchwad, Maharashtra 422204, India", "flagNotes": null, "noOfIdentifications": 0, "geoPrivacy": false, "createdOn (UTC)": "07/02/2017", "createdOn (Portal time)": "07/02/2017", "associatedMedia": "/f13894cc-6b0b-44cf-a123-90593907b714/111.jpg", "group_id": "Plants", "dateAccuracy": null, "isLocked": false, "locationLat": 20.106212615966797, "locationLon": 73.471992492675781, "locationScale": "APPROXIMATE", "fromDate": "11/12/2016", "toDate": "11/12/2016", "rank": null, "scientificName": null, "commonName": null, "kingdom": null, "phylum": null, "class": null, "order": null, "superfamily": null, "family": null, "genus": null, "species": null, "basisOfRecord": "HUMAN_OBSERVATION", "plant habit in english": null, "plant habitat in english": null, "village name in english": null, "Folklore: A story about this tree": null, "Uses: This tree is used for": null, "Height (m)": null, "Canopy Diameter (m)": null, "Trunk Circumference (cm)": null, "Texture": null, "Has stem?": null, "Growing on": null, "Bottom surface": null, "Ecological Role": null, "Edibility status": null, "Canopy Cover": null, "Understory": null, "Trunk Area": null, "Number of birds observed.": null, "higherClassificationId": null, "speciesPageId": null, "previousVernacularNames": null, "previousIdentifications": null, "state": "MAHARASHTRA", "tahsil": "Trimbakeshwar", "district": "Nashik", "Phenology State": null, "Habitat Type": null, "Abundance": null, "speciesGroup": "Plants" }, "geometry": { "type": "Point", "coordinates": [ 73.471992492675781, 20.106212615966797 ] } },
{ "type": "Feature", "properties": { "catalogNumber": 1739632, "createdBy": "Shailesh Maind", "placeName": "Narayangaon - Datyane Rd, Narayangaon, Maharashtra 422302, India", "flagNotes": null, "noOfIdentifications": 1, "geoPrivacy": false, "createdOn (UTC)": "06/02/2017", "createdOn (Portal time)": "06/02/2017", "associatedMedia": "/97475b97-5d3d-4020-b819-258164aa4a8f/562.jpg", "group_id": "Plants", "dateAccuracy": null, "isLocked": false, "locationLat": 20.078868865966797, "locationLon": 73.971542358398438, "locationScale": "APPROXIMATE", "fromDate": "15/09/2016", "toDate": "15/09/2016", "rank": "species", "scientificName": "Limonia acidissima L.", "commonName": "Kavat:Hin", "kingdom": "Plantae", "phylum": "Tracheophyta", "class": "Magnoliopsida", "order": "Sapindales", "superfamily": null, "family": "Rutaceae", "genus": "Limonia", "species": null, "basisOfRecord": "HUMAN_OBSERVATION", "plant habit in english": null, "plant habitat in english": null, "village name in english": null, "Folklore: A story about this tree": null, "Uses: This tree is used for": null, "Height (m)": null, "Canopy Diameter (m)": null, "Trunk Circumference (cm)": null, "Texture": null, "Has stem?": null, "Growing on": null, "Bottom surface": null, "Ecological Role": null, "Edibility status": null, "Canopy Cover": null, "Understory": null, "Trunk Area": null, "Number of birds observed.": null, "higherClassificationId": "name:Root#rank:root#taxonID:1 | name:Plantae#rank:kingdom#taxonID:2998 | name:Tracheophyta#rank:phylum#taxonID:33364 | name:Magnoliopsida#rank:class#taxonID:33366 | name:Sapindales#rank:order#taxonID:3035 | name:Rutaceae#rank:family#taxonID:3037 | name:Limonia#rank:genus#taxonID:277324 | name:Limonia acidissima L.#rank:species#taxonID:29735", "speciesPageId": null, "previousVernacularNames": "373953#Kavat:Hin | ", "previousIdentifications": "373953#Limonia acidissima L. | ", "state": "MAHARASHTRA", "tahsil": "Niphad", "district": "Nashik", "Phenology State": null, "Habitat Type": null, "Abundance": null, "speciesGroup": "Plants" }, "geometry": { "type": "Point", "coordinates": [ 73.971542358398438, 20.078868865966797 ] } },
{ "type": "Feature", "properties": { "catalogNumber": 1739510, "createdBy": "Shailesh Maind", "placeName": "Saputara-Nasik Rd, Maharashtra 422202, India", "flagNotes": null, "noOfIdentifications": 1, "geoPrivacy": false, "createdOn (UTC)": "06/02/2017", "createdOn (Portal time)": "06/02/2017", "associatedMedia": "/6df1fd70-565d-4a06-a520-a2cec910b98a/519.jpg", "group_id": "Plants", "dateAccuracy": null, "isLocked": false, "locationLat": 20.275833129882812, "locationLon": 73.875221252441406, "locationScale": "APPROXIMATE", "fromDate": "11/08/2016", "toDate": "11/08/2016", "rank": "species", "scientificName": "Martynia annua L.", "commonName": "Devil's Claw:English", "kingdom": "Plantae", "phylum": "Tracheophyta", "class": "Magnoliopsida", "order": "Lamiales", "superfamily": null, "family": "Martyniaceae", "genus": "Martynia", "species": null, "basisOfRecord": "HUMAN_OBSERVATION", "plant habit in english": null, "plant habitat in english": null, "village name in english": null, "Folklore: A story about this tree": null, "Uses: This tree is used for": null, "Height (m)": null, "Canopy Diameter (m)": null, "Trunk Circumference (cm)": null, "Texture": null, "Has stem?": null, "Growing on": null, "Bottom surface": null, "Ecological Role": null, "Edibility status": null, "Canopy Cover": null, "Understory": null, "Trunk Area": null, "Number of birds observed.": null, "higherClassificationId": "name:Root#rank:root#taxonID:1 | name:Plantae#rank:kingdom#taxonID:2998 | name:Tracheophyta#rank:phylum#taxonID:33364 | name:Magnoliopsida#rank:class#taxonID:33366 | name:Lamiales#rank:order#taxonID:3554 | name:Martyniaceae#rank:family#taxonID:42236 | name:Martynia#rank:genus#taxonID:122320 | name:Martynia annua L.#rank:species#taxonID:30849", "speciesPageId": null, "previousVernacularNames": "269005#Devil's Claw:English | ", "previousIdentifications": "269005#Martynia annua L. | ", "state": "MAHARASHTRA", "tahsil": "Dindori", "district": "Nashik", "Phenology State": null, "Habitat Type": null, "Abundance": null, "speciesGroup": "Plants" }, "geometry": { "type": "Point", "coordinates": [ 73.875221252441406, 20.275833129882812 ] } },
{ "type": "Feature", "properties": { "catalogNumber": 1739504, "createdBy": "Shailesh Maind", "placeName": "Mumbai - Agra National Hwy, Maharashtra 422209, India", "flagNotes": null, "noOfIdentifications": 1, "geoPrivacy": false, "createdOn (UTC)": "04/02/2017", "createdOn (Portal time)": "04/02/2017", "associatedMedia": "/1394eace-a10e-4b2c-9b34-fc7e9f96b926/420.jpg", "group_id": "Plants", "dateAccuracy": null, "isLocked": false, "locationLat": 20.151735305786133, "locationLon": 73.983352661132812, "locationScale": "APPROXIMATE", "fromDate": "29/01/2017", "toDate": "29/01/2017", "rank": "species", "scientificName": "Butea monosperma (Lam.) Taub.", "commonName": "Flame Of Forest:English", "kingdom": "Plantae", "phylum": "Tracheophyta", "class": "Equisetopsida C. Agardh", "order": "Fabales", "superfamily": null, "family": "Fabaceae", "genus": "Butea", "species": null, "basisOfRecord": "HUMAN_OBSERVATION", "plant habit in english": null, "plant habitat in english": null, "village name in english": null, "Folklore: A story about this tree": null, "Uses: This tree is used for": null, "Height (m)": null, "Canopy Diameter (m)": null, "Trunk Circumference (cm)": null, "Texture": null, "Has stem?": null, "Growing on": null, "Bottom surface": null, "Ecological Role": null, "Edibility status": null, "Canopy Cover": null, "Understory": null, "Trunk Area": null, "Number of birds observed.": null, "higherClassificationId": "name:Root#rank:root#taxonID:1 | name:Plantae#rank:kingdom#taxonID:2998 | name:Tracheophyta#rank:phylum#taxonID:33364 | name:Equisetopsida C. Agardh#rank:class#taxonID:106941 | name:Fabales#rank:order#taxonID:115425 | name:Fabaceae#rank:family#taxonID:29443 | name:Butea#rank:genus#taxonID:115459 | name:Butea monosperma (Lam.) Taub.#rank:species#taxonID:29445", "speciesPageId": null, "previousVernacularNames": "317036#Flame Of Forest:English | ", "previousIdentifications": "317036#Butea monosperma (Lam.) Taub. | ", "state": "MAHARASHTRA", "tahsil": "Niphad", "district": "Nashik", "Phenology State": "Flowers", "Habitat Type": null, "Abundance": null, "speciesGroup": "Plants" }, "geometry": { "type": "Point", "coordinates": [ 73.983352661132812, 20.151735305786133 ] } },
{ "type": "Feature", "properties": { "catalogNumber": 1739497, "createdBy": "Shailesh Maind", "placeName": "Vani-Nasik, Saputara-Nasik Rd, Kasbe Vani, Maharashtra 422215, India", "flagNotes": null, "noOfIdentifications": 1, "geoPrivacy": false, "createdOn (UTC)": "04/02/2017", "createdOn (Portal time)": "04/02/2017", "associatedMedia": "/a0428064-32fc-4b98-9f36-0e3243d95731/883.jpg", "group_id": "Plants", "dateAccuracy": null, "isLocked": false, "locationLat": 20.333328247070312, "locationLon": 73.887237548828125, "locationScale": "APPROXIMATE", "fromDate": "01/02/2017", "toDate": "01/02/2017", "rank": "species", "scientificName": "Bauhinia purpurea L.", "commonName": "Purple Orchid Tree:English", "kingdom": "Plantae", "phylum": "Tracheophyta", "class": "Equisetopsida C. Agardh", "order": "Fabales", "superfamily": null, "family": "Fabaceae", "genus": "Bauhinia", "species": null, "basisOfRecord": "HUMAN_OBSERVATION", "plant habit in english": null, "plant habitat in english": null, "village name in english": null, "Folklore: A story about this tree": null, "Uses: This tree is used for": null, "Height (m)": null, "Canopy Diameter (m)": null, "Trunk Circumference (cm)": null, "Texture": null, "Has stem?": null, "Growing on": null, "Bottom surface": null, "Ecological Role": null, "Edibility status": null, "Canopy Cover": null, "Understory": null, "Trunk Area": null, "Number of birds observed.": null, "higherClassificationId": "name:Root#rank:root#taxonID:1 | name:Plantae#rank:kingdom#taxonID:2998 | name:Tracheophyta#rank:phylum#taxonID:33364 | name:Equisetopsida C. Agardh#rank:class#taxonID:106941 | name:Fabales#rank:order#taxonID:115425 | name:Fabaceae#rank:family#taxonID:29443 | name:Bauhinia#rank:genus#taxonID:115918 | name:Bauhinia purpurea L.#rank:species#taxonID:35682", "speciesPageId": null, "previousVernacularNames": "269210#Purple Orchid Tree:English | ", "previousIdentifications": "269210#Bauhinia purpurea L. | ", "state": "MAHARASHTRA", "tahsil": "Dindori", "district": "Nashik", "Phenology State": null, "Habitat Type": null, "Abundance": null, "speciesGroup": "Plants" }, "geometry": { "type": "Point", "coordinates": [ 73.887237548828125, 20.333328247070312 ] } },
{ "type": "Feature", "properties": { "catalogNumber": 1735597, "createdBy": "Shailesh Maind", "placeName": "Saputara-Nasik Rd, Maharashtra 422202, India", "flagNotes": null, "noOfIdentifications": 1, "geoPrivacy": false, "createdOn (UTC)": "10/11/2016", "createdOn (Portal time)": "11/11/2016", "associatedMedia": "/30dd520d-3807-4ae7-a36a-2353b01d997d/143.JPG", "group_id": "Plants", "dateAccuracy": null, "isLocked": false, "locationLat": 20.270328521728516, "locationLon": 73.875434875488281, "locationScale": "APPROXIMATE", "fromDate": "11/08/2016", "toDate": "11/08/2016", "rank": null, "scientificName": "Rotheca serrata", "commonName": "Blue Mountain Bush:English", "kingdom": null, "phylum": null, "class": null, "order": null, "superfamily": null, "family": null, "genus": null, "species": null, "basisOfRecord": "HUMAN_OBSERVATION", "plant habit in english": null, "plant habitat in english": null, "village name in english": null, "Folklore: A story about this tree": null, "Uses: This tree is used for": null, "Height (m)": null, "Canopy Diameter (m)": null, "Trunk Circumference (cm)": null, "Texture": null, "Has stem?": null, "Growing on": null, "Bottom surface": null, "Ecological Role": null, "Edibility status": null, "Canopy Cover": null, "Understory": null, "Trunk Area": null, "Number of birds observed.": null, "higherClassificationId": null, "speciesPageId": null, "previousVernacularNames": "3143387#Blue Mountain Bush:English | ", "previousIdentifications": "3143387#Rotheca serrata | ", "state": "MAHARASHTRA", "tahsil": "Dindori", "district": "Nashik", "Phenology State": null, "Habitat Type": null, "Abundance": null, "speciesGroup": "Plants" }, "geometry": { "type": "Point", "coordinates": [ 73.875434875488281, 20.270328521728516 ] } },
{ "type": "Feature", "properties": { "catalogNumber": 387554, "createdBy": "Chief RedEarth", "placeName": "Peint, Maharashtra 422208, India", "flagNotes": null, "noOfIdentifications": 1, "geoPrivacy": false, "createdOn (UTC)": "13/08/2015", "createdOn (Portal time)": "13/08/2015", "associatedMedia": "/aaf968d3-a666-4807-9309-1ba8d59d440f/72.JPG", "group_id": "Plants", "dateAccuracy": null, "isLocked": false, "locationLat": 20.258111953735352, "locationLon": 73.505668640136719, "locationScale": "ACCURATE", "fromDate": "08/08/2015", "toDate": "08/08/2015", "rank": "species", "scientificName": "Cuscuta chinensis Lam.", "commonName": "Common Dodder:English", "kingdom": "Plantae", "phylum": "Tracheophyta", "class": "Magnoliopsida", "order": "Solanales", "superfamily": null, "family": "Convolvulaceae", "genus": "Cuscuta", "species": null, "basisOfRecord": "HUMAN_OBSERVATION", "plant habit in english": null, "plant habitat in english": null, "village name in english": null, "Folklore: A story about this tree": null, "Uses: This tree is used for": null, "Height (m)": null, "Canopy Diameter (m)": null, "Trunk Circumference (cm)": null, "Texture": null, "Has stem?": null, "Growing on": null, "Bottom surface": null, "Ecological Role": null, "Edibility status": null, "Canopy Cover": null, "Understory": null, "Trunk Area": null, "Number of birds observed.": null, "higherClassificationId": "name:Root#rank:root#taxonID:1 | name:Plantae#rank:kingdom#taxonID:2998 | name:Tracheophyta#rank:phylum#taxonID:33364 | name:Magnoliopsida#rank:class#taxonID:33366 | name:Solanales#rank:order#taxonID:115110 | name:Convolvulaceae#rank:family#taxonID:30241 | name:Cuscuta#rank:genus#taxonID:115114 | name:Cuscuta chinensis Lam.#rank:species#taxonID:30178", "speciesPageId": null, "previousVernacularNames": "268933#Common Dodder:English | ", "previousIdentifications": "268933#Cuscuta chinensis Lam. | ", "state": "MAHARASHTRA", "tahsil": "Peint", "district": "Nashik", "Phenology State": null, "Habitat Type": null, "Abundance": null, "speciesGroup": "Plants" }, "geometry": { "type": "Point", "coordinates": [ 73.505668640136719, 20.258111953735352 ] } },
{ "type": "Feature", "properties": { "catalogNumber": 387552, "createdBy": "Chief RedEarth", "placeName": "Peint, Maharashtra 422208, India", "flagNotes": null, "noOfIdentifications": 1, "geoPrivacy": false, "createdOn (UTC)": "13/08/2015", "createdOn (Portal time)": "13/08/2015", "associatedMedia": "/e9a7bcbe-d9f5-4893-a7ae-f1539eea526c/224.JPG", "group_id": "Plants", "dateAccuracy": null, "isLocked": false, "locationLat": 20.258111953735352, "locationLon": 73.505668640136719, "locationScale": "ACCURATE", "fromDate": "08/08/2015", "toDate": "08/08/2015", "rank": "species", "scientificName": "Celastrus paniculatus", "commonName": null, "kingdom": "Plantae", "phylum": "Tracheophyta", "class": "Magnoliopsida", "order": "Celastrales", "superfamily": null, "family": "Celastraceae", "genus": "Celastrus", "species": null, "basisOfRecord": "HUMAN_OBSERVATION", "plant habit in english": null, "plant habitat in english": null, "village name in english": null, "Folklore: A story about this tree": null, "Uses: This tree is used for": null, "Height (m)": null, "Canopy Diameter (m)": null, "Trunk Circumference (cm)": null, "Texture": null, "Has stem?": null, "Growing on": null, "Bottom surface": null, "Ecological Role": null, "Edibility status": null, "Canopy Cover": null, "Understory": null, "Trunk Area": null, "Number of birds observed.": null, "higherClassificationId": "name:Root#rank:root#taxonID:1 | name:Plantae#rank:kingdom#taxonID:2998 | name:Tracheophyta#rank:phylum#taxonID:33364 | name:Magnoliopsida#rank:class#taxonID:33366 | name:Celastrales#rank:order#taxonID:3252 | name:Celastraceae#rank:family#taxonID:3464 | name:Celastrus#rank:genus#taxonID:137252 | name:Celastrus paniculatus#rank:species#taxonID:36679", "speciesPageId": null, "previousVernacularNames": null, "previousIdentifications": "269341#Celastrus paniculatus | ", "state": "MAHARASHTRA", "tahsil": "Peint", "district": "Nashik", "Phenology State": null, "Habitat Type": null, "Abundance": null, "speciesGroup": "Plants" }, "geometry": { "type": "Point", "coordinates": [ 73.505668640136719, 20.258111953735352 ] } },
{ "type": "Feature", "properties": { "catalogNumber": 387550, "createdBy": "Chief RedEarth", "placeName": "Golshi, Maharashtra 422208, India", "flagNotes": null, "noOfIdentifications": 0, "geoPrivacy": false, "createdOn (UTC)": "13/08/2015", "createdOn (Portal time)": "13/08/2015", "associatedMedia": "/c7c236df-7368-4f7f-8f85-beb40a83d2d3/932.JPG", "group_id": "Plants", "dateAccuracy": null, "isLocked": false, "locationLat": 20.253353118896484, "locationLon": 73.6407470703125, "locationScale": "ACCURATE", "fromDate": "08/08/2015", "toDate": "08/08/2015", "rank": null, "scientificName": null, "commonName": null, "kingdom": null, "phylum": null, "class": null, "order": null, "superfamily": null, "family": null, "genus": null, "species": null, "basisOfRecord": "HUMAN_OBSERVATION", "plant habit in english": null, "plant habitat in english": null, "village name in english": null, "Folklore: A story about this tree": null, "Uses: This tree is used for": null, "Height (m)": null, "Canopy Diameter (m)": null, "Trunk Circumference (cm)": null, "Texture": null, "Has stem?": null, "Growing on": null, "Bottom surface": null, "Ecological Role": null, "Edibility status": null, "Canopy Cover": null, "Understory": null, "Trunk Area": null, "Number of birds observed.": null, "higherClassificationId": null, "speciesPageId": null, "previousVernacularNames": null, "previousIdentifications": null, "state": "MAHARASHTRA", "tahsil": "Dindori", "district": "Nashik", "Phenology State": null, "Habitat Type": null, "Abundance": null, "speciesGroup": "Plants" }, "geometry": { "type": "Point", "coordinates": [ 73.6407470703125, 20.253353118896484 ] } },
{ "type": "Feature", "properties": { "catalogNumber": 387546, "createdBy": "Chief RedEarth", "placeName": "Golshi, Maharashtra 422208, India", "flagNotes": null, "noOfIdentifications": 1, "geoPrivacy": false, "createdOn (UTC)": "13/08/2015", "createdOn (Portal time)": "13/08/2015", "associatedMedia": "/b188d6b4-0c20-48ee-b1d2-c0cf2ae1af5f/925.JPG", "group_id": "Plants", "dateAccuracy": null, "isLocked": false, "locationLat": 20.253353118896484, "locationLon": 73.6407470703125, "locationScale": "ACCURATE", "fromDate": "08/08/2015", "toDate": "08/08/2015", "rank": "species", "scientificName": "Justicia procumbens L.", "commonName": null, "kingdom": "Plantae", "phylum": "Tracheophyta", "class": "Magnoliopsida", "order": "Lamiales", "superfamily": null, "family": "Acanthaceae", "genus": "Justicia", "species": null, "basisOfRecord": "HUMAN_OBSERVATION", "plant habit in english": null, "plant habitat in english": null, "village name in english": null, "Folklore: A story about this tree": null, "Uses: This tree is used for": null, "Height (m)": null, "Canopy Diameter (m)": null, "Trunk Circumference (cm)": null, "Texture": null, "Has stem?": null, "Growing on": null, "Bottom surface": null, "Ecological Role": null, "Edibility status": null, "Canopy Cover": null, "Understory": null, "Trunk Area": null, "Number of birds observed.": null, "higherClassificationId": "name:Root#rank:root#taxonID:1 | name:Plantae#rank:kingdom#taxonID:2998 | name:Tracheophyta#rank:phylum#taxonID:33364 | name:Magnoliopsida#rank:class#taxonID:33366 | name:Lamiales#rank:order#taxonID:3554 | name:Acanthaceae#rank:family#taxonID:30376 | name:Justicia#rank:genus#taxonID:122342 | name:Justicia procumbens L.#rank:species#taxonID:434711", "speciesPageId": null, "previousVernacularNames": null, "previousIdentifications": "806985#Justicia procumbens L. | ", "state": "MAHARASHTRA", "tahsil": "Dindori", "district": "Nashik", "Phenology State": null, "Habitat Type": null, "Abundance": null, "speciesGroup": "Plants" }, "geometry": { "type": "Point", "coordinates": [ 73.6407470703125, 20.253353118896484 ] } },
{ "type": "Feature", "properties": { "catalogNumber": 387544, "createdBy": "Chief RedEarth", "placeName": "Golshi, Maharashtra 422208, India", "flagNotes": null, "noOfIdentifications": 0, "geoPrivacy": false, "createdOn (UTC)": "13/08/2015", "createdOn (Portal time)": "13/08/2015", "associatedMedia": "/7fc2fe58-c7ef-472f-a3f5-f058d25f7ba1/286.JPG", "group_id": "Plants", "dateAccuracy": null, "isLocked": false, "locationLat": 20.253353118896484, "locationLon": 73.6407470703125, "locationScale": "ACCURATE", "fromDate": "08/08/2015", "toDate": "08/08/2015", "rank": null, "scientificName": null, "commonName": null, "kingdom": null, "phylum": null, "class": null, "order": null, "superfamily": null, "family": null, "genus": null, "species": null, "basisOfRecord": "HUMAN_OBSERVATION", "plant habit in english": null, "plant habitat in english": null, "village name in english": null, "Folklore: A story about this tree": null, "Uses: This tree is used for": null, "Height (m)": null, "Canopy Diameter (m)": null, "Trunk Circumference (cm)": null, "Texture": null, "Has stem?": null, "Growing on": null, "Bottom surface": null, "Ecological Role": null, "Edibility status": null, "Canopy Cover": null, "Understory": null, "Trunk Area": null, "Number of birds observed.": null, "higherClassificationId": null, "speciesPageId": null, "previousVernacularNames": null, "previousIdentifications": null, "state": "MAHARASHTRA", "tahsil": "Dindori", "district": "Nashik", "Phenology State": null, "Habitat Type": null, "Abundance": null, "speciesGroup": "Plants" }, "geometry": { "type": "Point", "coordinates": [ 73.6407470703125, 20.253353118896484 ] } },
{ "type": "Feature", "properties": { "catalogNumber": 387255, "createdBy": "Chief RedEarth", "placeName": "Veer Savarkar Udyan, Purnvad Nagar, Nashik, Maharashtra 422013, India", "flagNotes": null, "noOfIdentifications": 0, "geoPrivacy": false, "createdOn (UTC)": "07/08/2015", "createdOn (Portal time)": "07/08/2015", "associatedMedia": "/ec96b732-2e8f-49ae-a566-a8898340225f/921.JPG", "group_id": "Plants", "dateAccuracy": null, "isLocked": false, "locationLat": 20.016136169433594, "locationLon": 73.757255554199219, "locationScale": "ACCURATE", "fromDate": "01/08/2015", "toDate": "01/08/2015", "rank": null, "scientificName": null, "commonName": null, "kingdom": null, "phylum": null, "class": null, "order": null, "superfamily": null, "family": null, "genus": null, "species": null, "basisOfRecord": "HUMAN_OBSERVATION", "plant habit in english": null, "plant habitat in english": null, "village name in english": null, "Folklore: A story about this tree": null, "Uses: This tree is used for": null, "Height (m)": null, "Canopy Diameter (m)": null, "Trunk Circumference (cm)": null, "Texture": null, "Has stem?": null, "Growing on": null, "Bottom surface": null, "Ecological Role": null, "Edibility status": null, "Canopy Cover": null, "Understory": null, "Trunk Area": null, "Number of birds observed.": null, "higherClassificationId": null, "speciesPageId": null, "previousVernacularNames": null, "previousIdentifications": null, "state": "MAHARASHTRA", "tahsil": "Nashik", "district": "Nashik", "Phenology State": null, "Habitat Type": null, "Abundance": null, "speciesGroup": "Plants" }, "geometry": { "type": "Point", "coordinates": [ 73.757255554199219, 20.016136169433594 ] } },
{ "type": "Feature", "properties": { "catalogNumber": 387250, "createdBy": "Chief RedEarth", "placeName": "Veer Savarkar Udyan, Purnvad Nagar, Nashik, Maharashtra 422013, India", "flagNotes": null, "noOfIdentifications": 1, "geoPrivacy": false, "createdOn (UTC)": "07/08/2015", "createdOn (Portal time)": "07/08/2015", "associatedMedia": "/33b08cbd-eb96-42d0-a732-d15785d5c98f/456.JPG", "group_id": "Plants", "dateAccuracy": null, "isLocked": false, "locationLat": 20.016136169433594, "locationLon": 73.757255554199219, "locationScale": "ACCURATE", "fromDate": "01/08/2015", "toDate": "01/08/2015", "rank": "species", "scientificName": "Cryptolepis buchananii Schultes ex Roemer & Schultes", "commonName": null, "kingdom": "Plantae", "phylum": "Tracheophyta", "class": "Magnoliopsida", "order": "Gentianales", "superfamily": null, "family": "Apocynaceae", "genus": "Cryptolepis", "species": null, "basisOfRecord": "HUMAN_OBSERVATION", "plant habit in english": null, "plant habitat in english": null, "village name in english": null, "Folklore: A story about this tree": null, "Uses: This tree is used for": null, "Height (m)": null, "Canopy Diameter (m)": null, "Trunk Circumference (cm)": null, "Texture": null, "Has stem?": null, "Growing on": null, "Bottom surface": null, "Ecological Role": null, "Edibility status": null, "Canopy Cover": null, "Understory": null, "Trunk Area": null, "Number of birds observed.": null, "higherClassificationId": "name:Root#rank:root#taxonID:1 | name:Plantae#rank:kingdom#taxonID:2998 | name:Tracheophyta#rank:phylum#taxonID:33364 | name:Magnoliopsida#rank:class#taxonID:33366 | name:Gentianales#rank:order#taxonID:3179 | name:Apocynaceae#rank:family#taxonID:3181 | name:Cryptolepis#rank:genus#taxonID:130638 | name:Cryptolepis buchananii Schultes ex Roemer & Schultes#rank:species#taxonID:37827", "speciesPageId": null, "previousVernacularNames": null, "previousIdentifications": "374320#Cryptolepis buchananii Schultes ex Roemer & Schultes | ", "state": "MAHARASHTRA", "tahsil": "Nashik", "district": "Nashik", "Phenology State": null, "Habitat Type": null, "Abundance": null, "speciesGroup": "Plants" }, "geometry": { "type": "Point", "coordinates": [ 73.757255554199219, 20.016136169433594 ] } },
{ "type": "Feature", "properties": { "catalogNumber": 268731, "createdBy": "Jui Pethe", "placeName": "Gowardhan, Nashik", "flagNotes": null, "noOfIdentifications": 1, "geoPrivacy": false, "createdOn (UTC)": "30/05/2012", "createdOn (Portal time)": "30/05/2012", "associatedMedia": "/69ddf041-51f0-4d31-841f-f293d6544e50/DSCN5760.jpg", "group_id": "Plants", "dateAccuracy": null, "isLocked": true, "locationLat": 20.040042877197266, "locationLon": 73.684135437011719, "locationScale": "ACCURATE", "fromDate": "29/04/2012", "toDate": null, "rank": "species", "scientificName": "Celastrus paniculatus", "commonName": null, "kingdom": "Plantae", "phylum": "Tracheophyta", "class": "Magnoliopsida", "order": "Celastrales", "superfamily": null, "family": "Celastraceae", "genus": "Celastrus", "species": null, "basisOfRecord": "HUMAN_OBSERVATION", "plant habit in english": null, "plant habitat in english": null, "village name in english": null, "Folklore: A story about this tree": null, "Uses: This tree is used for": null, "Height (m)": null, "Canopy Diameter (m)": null, "Trunk Circumference (cm)": null, "Texture": null, "Has stem?": null, "Growing on": null, "Bottom surface": null, "Ecological Role": null, "Edibility status": null, "Canopy Cover": null, "Understory": null, "Trunk Area": null, "Number of birds observed.": null, "higherClassificationId": "name:Root#rank:root#taxonID:1 | name:Plantae#rank:kingdom#taxonID:2998 | name:Tracheophyta#rank:phylum#taxonID:33364 | name:Magnoliopsida#rank:class#taxonID:33366 | name:Celastrales#rank:order#taxonID:3252 | name:Celastraceae#rank:family#taxonID:3464 | name:Celastrus#rank:genus#taxonID:137252 | name:Celastrus paniculatus#rank:species#taxonID:36679", "speciesPageId": null, "previousVernacularNames": null, "previousIdentifications": "269341#Celastrus paniculatus | ", "state": "MAHARASHTRA", "tahsil": "Nashik", "district": "Nashik", "Phenology State": null, "Habitat Type": null, "Abundance": null, "speciesGroup": "Plants" }, "geometry": { "type": "Point", "coordinates": [ 73.684135437011719, 20.040042877197266 ] } }
]
}
